GLOBALSTAR M079 [+]     
1 37188U 10054A   23249.64862186 -.00000088  00000+0  86057-4 0  9994
2 37188  52.0056 317.0899 0000335  97.5573  45.4545 12.62267443594429
GLOBALSTAR M074 [+]     
1 37189U 10054B   23249.91932672 -.00000083  00000+0  11363-3 0  9995
2 37189  52.0028 315.6891 0000556 106.3384  67.4480 12.62269516595065
GLOBALSTAR M076 [+]     
1 37190U 10054C   23249.94539073 -.00000081  00000+0  12610-3 0  9992
2 37190  52.0040 315.7199 0000726  52.9697 120.3837 12.62260709594783
GLOBALSTAR M077 [+]     
1 37191U 10054D   23249.85345073 -.00000093  00000+0  60946-4 0  9997
2 37191  52.0056 272.6703 0000408 101.9443  71.9664 12.62260571595141
GLOBALSTAR M075 [+]     
1 37192U 10054E   23249.79983420 -.00000087  00000+0  94014-4 0  9991
2 37192  51.9976 358.7794 0000464  91.2867  79.5777 12.62260822593999
GLOBALSTAR M073 [+]     
1 37193U 10054F   23250.08644983 -.00000082  00000+0  11943-3 0  9998
2 37193  52.0043 271.2332 0000319  98.3799 295.3279 12.62267262595919
GLOBALSTAR M083 [+]     
1 37739U 11033A   23249.94139243 -.00000111  00000+0 -41867-4 0  9996
2 37739  51.9843 221.2901 0000127 119.1734 276.0999 12.62268664564868
GLOBALSTAR M088 [+]     
1 37740U 11033B   23249.90979101 -.00000094  00000+0  55664-4 0  9998
2 37740  51.9728 127.4252 0000427  51.0735 320.1436 12.62265271560400
GLOBALSTAR M091 [+]     
1 37741U 11033C   23250.03627396 -.00000103  00000+0  64863-5 0  9994
2 37741  51.9990  89.4330 0000465  66.8113  98.8410 12.62266075561463
GLOBALSTAR M085 [+]     
1 37742U 11033D   23249.67254206 -.00000103  00000+0  68065-5 0  9997
2 37742  51.9881  42.1512 0000543  96.5432 276.3639 12.62266631561679
GLOBALSTAR M081 [+]     
1 37743U 11033E   23249.64544817 -.00000108  00000+0 -26110-4 0  9995
2 37743  51.9970  44.6207 0000534  70.4741  58.8481 12.62270634561813
GLOBALSTAR M089 [+]     
1 37744U 11033F   23249.77206899 -.00000097  00000+0  35205-4 0  9996
2 37744  51.9959 358.5876 0000802  83.9409  80.7047 12.62266322562674
GLOBALSTAR M084 [+]     
1 38040U 11080A   23249.30453389 -.00000081  00000+0  12540-3 0  9994
2 38040  51.9987 226.9552 0000553  64.3832  74.0954 12.62265451540592
GLOBALSTAR M080 [+]     
1 38041U 11080B   23249.68126183 -.00000087  00000+0  90997-4 0  9994
2 38041  52.0040 227.1860 0000648  45.8797 125.8511 12.62264176540765
GLOBALSTAR M082 [+]     
1 38042U 11080C   23250.13433845 -.00000085  00000+0  10266-3 0  9991
2 38042  52.0069 181.1843 0000300 162.4896 209.1213 12.62270341541709
GLOBALSTAR M092 [+]     
1 38043U 11080D   23250.11305954 -.00000098  00000+0  31026-4 0  9991
2 38043  52.0075 271.5927 0000673  92.3119 302.7820 12.62271991540194
GLOBALSTAR M090 [+]     
1 38044U 11080E   23250.08172102 -.00000080  00000+0  13265-3 0  9990
2 38044  51.9878 175.9900 0000259  52.2544 320.0996 12.62267375541682
GLOBALSTAR M086 [+]     
1 38045U 11080F   23250.10762863 -.00000101  00000+0  15324-4 0  9996
2 38045  51.9893 176.4100 0001135 346.5059  24.6137 12.62280348541692
GLOBALSTAR M097 [+]     
1 39072U 13005A   23249.81524488 -.00000106  00000+0 -10553-4 0  9996
2 39072  52.0039  91.1894 0000437  70.4895 289.6019 12.62270533488805
GLOBALSTAR M093 [+]     
1 39073U 13005B   23249.94699518 -.00000106  00000+0 -11488-4 0  9996
2 39073  51.9808  85.1293 0000304  47.1219 312.9673 12.62266434488898
GLOBALSTAR M094 [+]     
1 39074U 13005C   23249.86787090 -.00000088  00000+0  89210-4 0  9997
2 39074  51.9988 359.1046 0000469  96.2358 263.8562 12.62267131490371
GLOBALSTAR M096 [+]     
1 39075U 13005D   23249.72254502 -.00000102  00000+0  98823-5 0  9998
2 39075  52.0082  47.5508 0000456  84.6980 275.3939 12.62268231489273
GLOBALSTAR M078 [+]     
1 39076U 13005E   23249.93342686 -.00000133  00000+0 -16538-3 0  9999
2 39076  51.9867 132.3018 0000891 146.3315 213.7609 12.62270712487920
GLOBALSTAR M095 [+]     
1 39077U 13005F   23250.03953546 -.00000092  00000+0  67319-4 0  9993
2 39077  51.9792 129.5020 0000272 143.4625 216.6260 12.62268549488150
GLOBALSTAR M087 [+]     
1 52888U 22064A   23250.01023563 -.00000100  00000+0  53549-4 0  9998
2 52888  51.9751 119.2757 0009750   7.5369 352.5676 13.37552078 59496
